STARLINK-37695          
1 69824U 26154F   26194.58334491 -.01961759  10553-2 -56494-2 0  9992
2 69824  53.1597 301.0763 0001244  56.5910 104.2578 15.92555759  2415
STARLINK-37690          
1 69825U 26154G   26194.58334491 -.01939970  10150-2 -61364-2 0  9998
2 69825  53.1598 301.0746 0001081  61.4091 100.3410 15.90736111  2415
STARLINK-37710          
1 69826U 26154H   26194.58334491 -.01943869  10200-2 -61125-2 0  9992
2 69826  53.1596 301.0677 0001095  65.2749  99.7515 15.90852269  2414
STARLINK-38031          
1 69827U 26154J   26194.58334491 -.01938636  10161-2 -60583-2 0  9992
2 69827  53.1597 301.0611 0001180  60.6374 107.4481 15.90972398  2417
STARLINK-38001          
1 69828U 26154K   26194.58334491 -.01931217  10101-2 -59969-2 0  9991
2 69828  53.1596 301.0550 0001104  65.6692 105.4304 15.91095417  2414
STARLINK-37622          
1 69829U 26154L   26194.58334491 -.01929468  10096-2 -59539-2 0  9993
2 69829  53.1596 301.0488 0001093  65.5656 108.5716 15.91217899  2412
STARLINK-37621          
1 69830U 26154M   26194.58334491 -.01922030  10037-2 -58906-2 0  9995
2 69830  53.1596 301.0428 0001173  65.9144 111.0524 15.91349360  2418
STARLINK-37918          
1 69831U 26154N   26194.58334491 -.01927740  10107-2 -58653-2 0  9996
2 69831  53.1596 301.0371 0001101  66.7189 113.0257 15.91491348  2414
STARLINK-37887          
1 69832U 26154P   26194.58334491 -.01927246  10116-2 -58220-2 0  9998
2 69832  53.1595 301.0313 0001132  64.5565 117.9366 15.91629943  2416
STARLINK-37624          
1 69833U 26154Q   26194.58334491 -.01924328  10097-2 -57831-2 0  9992
2 69833  53.1594 301.0246 0001036  65.6175 120.1767 15.91730003  2414
STARLINK-37769          
1 69834U 26154R   26194.58334491 -.01925584  10121-2 -57535-2 0  9997
2 69834  53.1594 301.0180 0001082  67.8335 121.1083 15.91841936  2415
STARLINK-37247          
1 69835U 26154S   26194.58334491 -.01930119  10177-2 -57316-2 0  9996
2 69835  53.1594 301.0117 0001106  66.3676 125.6274 15.91961508  2515
STARLINK-37569          
1 69836U 26154T   26194.58334491 -.01916526  10057-2 -56529-2 0  9995
2 69836  53.1593 301.0063 0001069  68.1685 126.5379 15.92090003  2412
STARLINK-37587          
1 69837U 26154U   26194.58334491 -.01923939  10140-2 -56468-2 0  9997
2 69837  53.1594 300.9990 0001199  68.2282 129.9176 15.92185890  2386
STARLINK-37590          
1 69838U 26154V   26194.58334491 -.01922102  10134-2 -56064-2 0  9994
2 69838  53.1592 300.9930 0001188  68.4663 132.6003 15.92305265  2258
STARLINK-37589          
1 69839U 26154W   26194.58334491 -.01926693  10190-2 -55874-2 0  9994
2 69839  53.1590 300.9866 0001033  70.6304 133.5556 15.92417230  2384
STARLINK-37487          
1 69840U 26154X   26194.58334491 -.01565201  74414-3 -31451-2 0  9995
2 69840  53.1582 300.7612 0000732  61.0775 250.9398 15.99126893  2382
STARLINK-37433          
1 69841U 26154Y   26194.58334491 -.01587745  76486-3 -31719-2 0  9991
2 69841  53.1583 300.7491 0000785  71.4814 246.3077 15.99232652  2515
STARLINK-37588          
1 69842U 26154Z   26194.58334491 -.01613700  78902-3 -32038-2 0  9993
2 69842  53.1581 300.7361 0000761  68.8870 255.0964 15.99346155  2411
STARLINK-37579          
1 69843U 26154AA  26194.58334491 -.01650535  82378-3 -32528-2 0  9997
2 69843  53.1581 300.7184 0000786  68.3433 263.9954 15.99481892  2417
STARLINK-37584          
1 69844U 26154AB  26194.58334491 -.01666183  83923-3 -32646-2 0  9992
2 69844  53.1583 300.7078 0000786  69.5974 267.7468 15.99586553  2417
STARLINK-37606          
1 69845U 26154AC  26194.58334491 -.01688494  86128-3 -32862-2 0  9992
2 69845  53.1580 300.6950 0000825  66.8546 276.5638 15.99707597  2412
STARLINK-37603          
1 69846U 26154AD  26194.58334491 -.01719944  89261-3 -33217-2 0  9994
2 69846  53.1582 300.6794 0000826  63.1059 287.6653 15.99847183  2417
STARLINK-37595          
1 69847U 26154AE  26194.58334491 -.01734490  90771-3 -33305-2 0  9994
2 69847  53.1579 300.6684 0000657  66.9465 288.8810 15.99950907  2413
CHUANG XIN 26 (CX-26)   
1 69972U 26158A   26194.51442212 -.00000212  00000+0 -21871-4 0  9997
2 69972  49.9860 287.5119 0004887 294.2352  65.8050 14.25122238   462
CZ-10B DEB              
1 69973U 26158B   26194.58513205  .00000099  00000+0  11013-3 0  9993
2 69973  49.9846 287.2193 0005700 305.8104  54.2279 14.24885997   478
CZ-10B R/B              
1 69974U 26158C   26194.56253036  .00000143  00000+0  55130-4 0  9994
2 69974  49.9631 286.3519 0197945 194.8878 164.6170 14.64293949   481
